GLOBALSTAR M023         
1 25621U 99004A   25258.85091376 -.00000040  00000+0  35281-3 0  9995
2 25621  52.0097 137.3684 0010005 331.1515 108.3989 12.62506350227186
GLOBALSTAR M040         
1 25622U 99004B   25258.86142120 -.00000083  00000+0  11669-3 0  9992
2 25622  51.9908 141.6252 0000207 162.6378 276.6511 12.62017025226705
GLOBALSTAR M036         
1 25623U 99004C   25258.60545275 -.00000048  00000+0  50467-3 0  9993
2 25623  52.0004   1.9961 0010647 221.1378 241.3530 11.86608549189711
GLOBALSTAR M038         
1 25624U 99004D   25258.54247289 -.00000086  00000+0  77922-4 0  9999
2 25624  51.9967 171.3581 0001170 247.8805 284.1363 12.32532058213517
GLOBALSTAR M022         
1 25649U 99012A   25258.59870267 -.00000120  00000+0 -40038-3 0  9995
2 25649  52.0056  45.1183 0002566  11.0981  69.9939 12.02502541187257
GLOBALSTAR M041         
1 25650U 99012B   25258.76100730 -.00000103  00000+0 -22328-3 0  9990
2 25650  52.0019 288.8962 0001557 132.5540 227.5428 11.96682713189123
GLOBALSTAR M046         
1 25651U 99012C   25258.60540934 -.00000063  00000+0  27927-3 0  9992
2 25651  52.0092 351.9376 0002522  84.0561  23.5131 12.09413506194604
GLOBALSTAR M037         
1 25652U 99012D   25258.77456358 -.00000060  00000+0  24136-3 0  9993
2 25652  51.9990 268.1876 0002176  32.7117 138.1561 12.62451211222714
